start=new Date('2022-09-13T00:00:00.000Z').valueOf();
sats=[{"MEAN_MOTION_DDOT":"0.0000000000000","TIME_SYSTEM":"UTC","GP_ID":"212430313","INCLINATION":"53.0550","MEAN_ELEMENT_THEORY":"SGP4","CLASSIFICATION_TYPE":"U","MEAN_MOTION":"15.06392050","ECCENTRICITY":"0.00012090","OBJECT_NAME":"STARLINK-2227","COUNTRY_CODE":"US","EPOCH":"2022-09-12T17:25:23.040768","RA_OF_ASC_NODE":"50.9736","MEAN_MOTION_DOT":"0.00000328","PERIOD":"95.593","ARG_OF_PERICENTER":"84.4491","MEAN_ANOMALY":"275.6636","TLE_LINE1":"1 48575U 21041Y   22255.72596112  .00000328  00000-0  40883-4 0  9996","RCS_SIZE":"LARGE","FILE":"3570509","NORAD_CAT_ID":"48575","APOAPSIS":"548.075","OBJECT_TYPE":"PAYLOAD","LAUNCH_DATE":"2021-05-15","BSTAR":"0.00004088300000","PERIAPSIS":"546.401","ELEMENT_SET_NO":"999","SITE":"AFETR","SEMIMAJOR_AXIS":"6925.373","REV_AT_EPOCH":"7375","CENTER_NAME":"EARTH","TLE_LINE2":"2 48575  53.0550  50.9736 0001209  84.4491 275.6636 15.06392050 73759","REF_FRAME":"TEME","DECAY_DATE":null,"EPHEMERIS_TYPE":"0","OBJECT_ID":"2021-041Y"},{"EPOCH":"2022-09-12T20:37:03.433728","RA_OF_ASC_NODE":"65.0695","ARG_OF_PERICENTER":"75.5993","MEAN_ANOMALY":"284.5157","MEAN_MOTION_DOT":"0.00000633","PERIOD":"95.592","GP_ID":"212430563","MEAN_ELEMENT_THEORY":"SGP4","INCLINATION":"53.0582","MEAN_MOTION_DDOT":"0.0000000000000","TIME_SYSTEM":"UTC","OBJECT_NAME":"STARLINK-2228","COUNTRY_CODE":"US","CLASSIFICATION_TYPE":"U","MEAN_MOTION":"15.06399638","ECCENTRICITY":"0.00014530","SEMIMAJOR_AXIS":"6925.350","REV_AT_EPOCH":"7356","CENTER_NAME":"EARTH","PERIAPSIS":"546.208","ELEMENT_SET_NO":"999","SITE":"AFETR","OBJECT_ID":"2021-041Z","EPHEMERIS_TYPE":"0","TLE_LINE2":"2 48576  53.0582  65.0695 0001453  75.5993 284.5157 15.06399638 73560","DECAY_DATE":null,"REF_FRAME":"TEME","NORAD_CAT_ID":"48576","FILE":"3570509","TLE_LINE1":"1 48576U 21041Z   22255.85906752  .00000633  00000-0  61411-4 0  9995","RCS_SIZE":"LARGE","OBJECT_TYPE":"PAYLOAD","LAUNCH_DATE":"2021-05-15","BSTAR":"0.00006141100000","APOAPSIS":"548.221"},{"EPOCH":"2022-09-12T19:11:29.742720","RA_OF_ASC_NODE":"90.3262","ARG_OF_PERICENTER":"81.7307","MEAN_ANOMALY":"278.3852","PERIOD":"95.595","MEAN_MOTION_DOT":"0.00010500","GP_ID":"212431307","INCLINATION":"53.0548","MEAN_ELEMENT_THEORY":"SGP4","MEAN_MOTION_DDOT":"0.0000000000000","TIME_SYSTEM":"UTC","OBJECT_NAME":"STARLINK-2231","COUNTRY_CODE":"US","CLASSIFICATION_TYPE":"U","ECCENTRICITY":"0.00014950","MEAN_MOTION":"15.06351370","REV_AT_EPOCH":"7319","CENTER_NAME":"EARTH","SEMIMAJOR_AXIS":"6925.498","SITE":"AFETR","ELEMENT_SET_NO":"999","PERIAPSIS":"546.327","EPHEMERIS_TYPE":"0","OBJECT_ID":"2021-041AA","TLE_LINE2":"2 48577  53.0548  90.3262 0001495  81.7307 278.3852 15.06351370 73191","REF_FRAME":"TEME","DECAY_DATE":null,"NORAD_CAT_ID":"48577","FILE":"3570509","RCS_SIZE":"LARGE","TLE_LINE1":"1 48577U 21041AA  22255.79964980  .00010500  00000-0  72366-3 0  9990","OBJECT_TYPE":"PAYLOAD","LAUNCH_DATE":"2021-05-15","BSTAR":"0.00072366000000","APOAPSIS":"548.398"},{"DECAY_DATE":null,"REF_FRAME":"TEME","TLE_LINE2":"2 48578  53.0536  91.6109 0001719  71.2377 288.8799 15.06395153 73163","EPHEMERIS_TYPE":"0","OBJECT_ID":"2021-041AB","SITE":"AFETR","ELEMENT_SET_NO":"999","PERIAPSIS":"546.038","REV_AT_EPOCH":"7316","CENTER_NAME":"EARTH","SEMIMAJOR_AXIS":"6925.363","APOAPSIS":"548.419","BSTAR":"-0.00003670200000","LAUNCH_DATE":"2021-05-15","OBJECT_TYPE":"PAYLOAD","RCS_SIZE":"LARGE","TLE_LINE1":"1 48578U 21041AB  22255.63014257 -.00000828  00000-0 -36702-4 0  9996","FILE":"3570509","NORAD_CAT_ID":"48578","PERIOD":"95.592","MEAN_MOTION_DOT":"-0.00000828","MEAN_ANOMALY":"288.8799","ARG_OF_PERICENTER":"71.2377","RA_OF_ASC_NODE":"91.6109","EPOCH":"2022-09-12T15:07:24.318048","ECCENTRICITY":"0.00017190","MEAN_MOTION":"15.06395153","CLASSIFICATION_TYPE":"U","COUNTRY_CODE":"US","OBJECT_NAME":"STARLINK-2232","TIME_SYSTEM":"UTC","MEAN_MOTION_DDOT":"0.0000000000000","INCLINATION":"53.0536","MEAN_ELEMENT_THEORY":"SGP4","GP_ID":"212431537"},{"ARG_OF_PERICENTER":"63.6136","MEAN_ANOMALY":"296.5002","PERIOD":"95.592","MEAN_MOTION_DOT":"0.00002146","EPOCH":"2022-09-12T15:44:27.993120","RA_OF_ASC_NODE":"90.9871","OBJECT_NAME":"STARLINK-2233","COUNTRY_CODE":"US","CLASSIFICATION_TYPE":"U","ECCENTRICITY":"0.00014520","MEAN_MOTION":"15.06397103","GP_ID":"212429813","MEAN_ELEMENT_THEORY":"SGP4","INCLINATION":"53.0550","MEAN_MOTION_DDOT":"0.0000000000000","TIME_SYSTEM":"UTC","OBJECT_ID":"2021-041AC","EPHEMERIS_TYPE":"0","TLE_LINE2":"2 48579  53.0550  90.9871 0001452  63.6136 296.5002 15.06397103 73171","REF_FRAME":"TEME","DECAY_DATE":null,"CENTER_NAME":"EARTH","REV_AT_EPOCH":"7317","SEMIMAJOR_AXIS":"6925.357","SITE":"AFETR","ELEMENT_SET_NO":"999","PERIAPSIS":"546.217","LAUNCH_DATE":"2021-05-15","OBJECT_TYPE":"PAYLOAD","BSTAR":"0.00016292000000","APOAPSIS":"548.228","NORAD_CAT_ID":"48579","FILE":"3570509","RCS_SIZE":"LARGE","TLE_LINE1":"1 48579U 21041AC  22255.65587955  .00002146  00000-0  16292-3 0  9993"},{"APOAPSIS":"548.083","BSTAR":"0.00004315900000","LAUNCH_DATE":"2021-05-15","OBJECT_TYPE":"PAYLOAD","TLE_LINE1":"1 48580U 21041AD  22255.62223028  .00000362  00000-0  43159-4 0  9991","RCS_SIZE":"LARGE","NORAD_CAT_ID":"48580","FILE":"3570509","REF_FRAME":"TEME","DECAY_DATE":null,"TLE_LINE2":"2 48580  53.0555  66.1426 0001254  87.0035 273.1098 15.06399801 73529","OBJECT_ID":"2021-041AD","EPHEMERIS_TYPE":"0","PERIAPSIS":"546.346","ELEMENT_SET_NO":"999","SITE":"AFETR","SEMIMAJOR_AXIS":"6925.349","REV_AT_EPOCH":"7352","CENTER_NAME":"EARTH","MEAN_MOTION":"15.06399801","ECCENTRICITY":"0.00012540","CLASSIFICATION_TYPE":"U","COUNTRY_CODE":"US","OBJECT_NAME":"STARLINK-2234","TIME_SYSTEM":"UTC","MEAN_MOTION_DDOT":"0.0000000000000","INCLINATION":"53.0555","MEAN_ELEMENT_THEORY":"SGP4","GP_ID":"212430063","MEAN_MOTION_DOT":"0.00000362","PERIOD":"95.592","MEAN_ANOMALY":"273.1098","ARG_OF_PERICENTER":"87.0035","RA_OF_ASC_NODE":"66.1426","EPOCH":"2022-09-12T14:56:00.696192"},{"MEAN_MOTION_DOT":"-0.00001311","PERIOD":"95.592","ARG_OF_PERICENTER":"91.0249","MEAN_ANOMALY":"269.0889","EPOCH":"2022-09-12T20:22:27.952032","RA_OF_ASC_NODE":"55.1121","CLASSIFICATION_TYPE":"U","MEAN_MOTION":"15.06401459","ECCENTRICITY":"0.00013020","OBJECT_NAME":"STARLINK-2235","COUNTRY_CODE":"US","MEAN_MOTION_DDOT":"0.0000000000000","TIME_SYSTEM":"UTC","GP_ID":"212430807","INCLINATION":"53.0552","MEAN_ELEMENT_THEORY":"SGP4","TLE_LINE2":"2 48581  53.0552  55.1121 0001302  91.0249 269.0889 15.06401459 73708","DECAY_DATE":null,"REF_FRAME":"TEME","EPHEMERIS_TYPE":"0","OBJECT_ID":"2021-041AE","PERIAPSIS":"546.307","ELEMENT_SET_NO":"999","SITE":"AFETR","SEMIMAJOR_AXIS":"6925.344","REV_AT_EPOCH":"7370","CENTER_NAME":"EARTH","APOAPSIS":"548.111","OBJECT_TYPE":"PAYLOAD","LAUNCH_DATE":"2021-05-15","BSTAR":"-0.00006914400000","TLE_LINE1":"1 48581U 21041AE  22255.84893463 -.00001311  00000-0 -69144-4 0  9991","RCS_SIZE":"LARGE","FILE":"3570509","NORAD_CAT_ID":"48581"},{"INCLINATION":"53.0563","MEAN_ELEMENT_THEORY":"SGP4","GP_ID":"212398712","TIME_SYSTEM":"UTC","MEAN_MOTION_DDOT":"0.0000000000000","COUNTRY_CODE":"US","OBJECT_NAME":"STARLINK-2236","ECCENTRICITY":"0.00015060","MEAN_MOTION":"15.06402720","CLASSIFICATION_TYPE":"U","RA_OF_ASC_NODE":"57.1362","EPOCH":"2022-09-12T10:22:42.563712","MEAN_ANOMALY":"274.4133","ARG_OF_PERICENTER":"85.7028","PERIOD":"95.592","MEAN_MOTION_DOT":"0.00001110","FILE":"3570189","NORAD_CAT_ID":"48582","RCS_SIZE":"LARGE","TLE_LINE1":"1 48582U 21041AF  22255.43243708  .00001110  00000-0  93364-4 0  9994","BSTAR":"0.00009336400000","OBJECT_TYPE":"PAYLOAD","LAUNCH_DATE":"2021-05-15","APOAPSIS":"548.248","CENTER_NAME":"EARTH","REV_AT_EPOCH":"7363","SEMIMAJOR_AXIS":"6925.340","ELEMENT_SET_NO":"999","SITE":"AFETR","PERIAPSIS":"546.162","EPHEMERIS_TYPE":"0","OBJECT_ID":"2021-041AF","REF_FRAME":"TEME","DECAY_DATE":null,"TLE_LINE2":"2 48582  53.0563  57.1362 0001506  85.7028 274.4133 15.06402720 73637"},{"TLE_LINE2":"2 48583  53.0529 100.7667 0001428  76.7804 283.3344 15.06403617 73042","REF_FRAME":"TEME","DECAY_DATE":null,"EPHEMERIS_TYPE":"0","OBJECT_ID":"2021-041AG","SITE":"AFETR","ELEMENT_SET_NO":"999","PERIAPSIS":"546.214","REV_AT_EPOCH":"7304","CENTER_NAME":"EARTH","SEMIMAJOR_AXIS":"6925.337","APOAPSIS":"548.191","OBJECT_TYPE":"PAYLOAD","LAUNCH_DATE":"2021-05-15","BSTAR":"0.00019502000000","RCS_SIZE":"LARGE","TLE_LINE1":"1 48583U 21041AG  22255.70287268  .00002625  00000-0  19502-3 0  9997","FILE":"3570509","NORAD_CAT_ID":"48583","PERIOD":"95.592","MEAN_MOTION_DOT":"0.00002625","ARG_OF_PERICENTER":"76.7804","MEAN_ANOMALY":"283.3344","EPOCH":"2022-09-12T16:52:08.199552","RA_OF_ASC_NODE":"100.7667","CLASSIFICATION_TYPE":"U","ECCENTRICITY":"0.00014280","MEAN_MOTION":"15.06403617","OBJECT_NAME":"STARLINK-2237","COUNTRY_CODE":"US","MEAN_MOTION_DDOT":"0.0000000000000","TIME_SYSTEM":"UTC","GP_ID":"212430314","INCLINATION":"53.0529","MEAN_ELEMENT_THEORY":"SGP4"},{"PERIOD":"95.592","MEAN_MOTION_DOT":"0.00000438","ARG_OF_PERICENTER":"69.6554","MEAN_ANOMALY":"290.4601","EPOCH":"2022-09-12T21:01:36.553728","RA_OF_ASC_NODE":"100.0028","CLASSIFICATION_TYPE":"U","ECCENTRICITY":"0.00015480","MEAN_MOTION":"15.06397978","OBJECT_NAME":"STARLINK-2238","COUNTRY_CODE":"US","MEAN_MOTION_DDOT":"0.0000000000000","TIME_SYSTEM":"UTC","GP_ID":"212430564","INCLINATION":"53.0554","MEAN_ELEMENT_THEORY":"SGP4","TLE_LINE2":"2 48584  53.0554 100.0028 0001548  69.6554 290.4601 15.06397978 73060","REF_FRAME":"TEME","DECAY_DATE":null,"OBJECT_ID":"2021-041AH","EPHEMERIS_TYPE":"0","ELEMENT_SET_NO":"999","SITE":"AFETR","PERIAPSIS":"546.148","REV_AT_EPOCH":"7306","CENTER_NAME":"EARTH","SEMIMAJOR_AXIS":"6925.355","APOAPSIS":"548.292","LAUNCH_DATE":"2021-05-15","OBJECT_TYPE":"PAYLOAD","BSTAR":"0.00004828200000","RCS_SIZE":"LARGE","TLE_LINE1":"1 48584U 21041AH  22255.87611752  .00000438  00000-0  48282-4 0  9993","NORAD_CAT_ID":"48584","FILE":"3570509"}];
